YAMAL 402               
1 39022U 12070A   21030.46854461  .00000089  00000-0  00000-0 0  9997
2 39022   0.0211 104.4930 0003210 215.6066  33.3679  1.00270915 29697
SKYNET 5D               
1 39034U 12075A   21030.53990367  .00000102  00000-0  00000-0 0  9995
2 39034   0.0738 355.1046 0004293 313.3440  68.6637  1.00268085 29477
MEXSAT 3                
1 39035U 12075B   21030.60843109 -.00000023  00000-0  00000-0 0  9998
2 39035   0.0178  66.1942 0002168 242.6266 285.4548  1.00270756 29499
TDRS 11                 
1 39070U 13004A   21030.59783064  .00000086  00000-0  00000-0 0  9999
2 39070   3.5123 335.2076 0004584  19.4378 176.3387  1.00265720 27001
AMAZONAS 3              
1 39078U 13006A   21030.46221406 -.00000279  00000-0  00000-0 0  9997
2 39078   0.0535 252.6115 0003354  32.2395 310.4479  1.00273073 25203
AZERSPACE 1             
1 39079U 13006B   21030.34354928  .00000136  00000-0  00000-0 0  9992
2 39079   0.0462 267.5156 0002097  77.3341 314.5999  1.00273185 29117
SBIRS GEO-2 (USA 241)   
1 39120U 13011A   21030.53344821  .00000127  00000-0  00000-0 0  9997
2 39120   1.9436 353.6638 0001644 319.9185  29.0167  1.00272691 28840
EUTELSAT 117 WEST A     
1 39122U 13012A   21030.60746039 -.00000010  00000-0  00000-0 0  9997
2 39122   0.0119  33.8609 0003036 277.5825 280.4701  1.00270735 28756
ANIK G1                 
1 39127U 13014A   21030.47222203 -.00000070  00000-0  00000-0 0  9997
2 39127   0.0493 249.9127 0002894  24.5415 278.1319  1.00269551 28569
CHINASAT 11 (ZX 11)     
1 39157U 13020A   21029.68754793 -.00000287  00000-0  00000-0 0  9992
2 39157   0.0091 303.8605 0002711  17.6452 153.1749  1.00271892 28457
EUTELSAT 7B             
1 39163U 13022A   21030.39771689  .00000051  00000-0  00000-0 0  9992
2 39163   0.0672 356.2250 0005639 346.8618 296.9094  1.00272107 28280
WGS F5 (USA 243)        
1 39168U 13024A   21030.44708455 -.00000281  00000-0  00000-0 0  9992
2 39168   0.0180  66.9688 0000309 244.2486 287.1174  1.00269282 27484
SES-6                   
1 39172U 13026A   21030.44943992 -.00000258  00000-0  00000-0 0  9990
2 39172   0.0566 281.0388 0002525  32.9185 297.2228  1.00271696 28030
IRNSS-1A                
1 39199U 13034A   21029.82451970  .00000078  00000-0  00000-0 0  9997
2 39199  31.3310  93.1841 0022274 188.9984 199.1012  1.00279158 27672
MUOS-2                  
1 39206U 13036A   21030.59598334  .00000069  00000-0  00000-0 0  9990
2 39206   2.5460   4.7345 0052491 184.0671 338.7721  1.00273603 27507
ALPHASAT                
1 39215U 13038A   21030.53432057  .00000138  00000-0  00000-0 0  9992
2 39215   2.5310  18.4235 0002255 285.9464  42.8013  1.00269540 24324
INSAT-3D                
1 39216U 13038B   21030.59354858 -.00000153  00000-0  00000-0 0  9999
2 39216   0.0228 101.1943 0001077 225.7723  98.8395  1.00270302 27418
WGS F6 (USA 244)        
1 39222U 13041A   21030.41393597  .00000092  00000-0  00000-0 0  9995
2 39222   0.0257 103.4488 0000373 197.5633 202.6884  1.00270235 26366
ES'HAIL 1               
1 39233U 13044A   21030.53440781  .00000146  00000-0  00000-0 0  9991
2 39233   0.0478  25.1384 0002314 292.7523  29.9474  1.00273355 26946
GSAT-7                  
1 39234U 13044B   21030.55327185 -.00000074  00000-0  00000-0 0  9997
2 39234   0.0596 104.8851 0008633 175.6815 122.5890  1.00271292 25630
AMOS-4                  
1 39237U 13045A   21030.47055104  .00000010  00000-0  00000-0 0  9990
2 39237   0.0066 201.5325 0002694 140.7087  22.0534  1.00272601 27266
AEHF-3 (USA 246)        
1 39256U 13050A   21030.47971081 -.00000352  00000-0  00000-0 0  9998
2 39256   0.6932  40.5850 0005988 272.5107 100.5289  1.00266169 25983
ASTRA 2E                
1 39285U 13056A   21030.53501845  .00000153  00000-0  00000-0 0  9998
2 39285   0.0594  32.8992 0002586 289.1839  28.9570  1.00271065 26754
FM-6                    
1 39360U 13058A   21030.37960383 -.00000014  00000-0  00000-0 0  9999
2 39360   0.0115  41.8922 0000997 114.8345 353.5814  1.00272229 26379
RADUGA-1M 3             
1 39375U 13062A   21030.53632699  .00000158  00000-0  00000-0 0  9992
2 39375   0.9909  95.4499 0006985 308.7617 313.8351  1.00274841 26432
SES-8                   
1 39460U 13071A   21030.54216071 -.00000267  00000-0  00000-0 0  9992
2 39460   0.0527 259.6278 0001196  69.3582  91.1635  1.00272182 24753
INMARSAT 5-F1           
1 39476U 13073A   21030.62626683  .00000031  00000-0  00000-0 0  9992
2 39476   0.0170  72.3637 0000446 340.9328   4.8088  1.00270688 25894
TKSAT-1 (TUPAC KATARI)  
1 39481U 13075A   21030.44019464 -.00000191  00000-0  00000-0 0  9991
2 39481   0.0011 228.4229 0002999  95.4334 237.2984  1.00270081 25905
EXPRESS-AM5             
1 39487U 13077A   21030.48546838 -.00000277  00000-0  00000-0 0  9998
2 39487   0.0191 252.7247 0000703 116.6850  75.3165  1.00271852 26663
GSAT-14                 
1 39498U 14001A   21030.55327185 -.00000074  00000-0  00000-0 0  9993
2 39498   0.0577 268.6365 0004641   9.2009 125.3284  1.00271447 25711
THAICOM 6               
1 39500U 14002A   21030.59354858 -.00000119  00000-0  00000-0 0  9999
2 39500   0.0675 119.0425 0000770 175.7795 127.3155  1.00274753 25767
TDRS 12                 
1 39504U 14004A   21030.39925451 -.00000261  00000-0  00000-0 0  9994
2 39504   4.3792 340.3639 0001796 333.9694 278.3530  1.00272584 24582
ABS-2                   
1 39508U 14006A   21030.55327185 -.00000084  00000-0  00000-0 0  9991
2 39508   0.0095  42.9806 0004032 290.4660  70.6527  1.00271670 25598
ATHENA-FIDUS            
1 39509U 14006B   21030.53685042  .00000157  00000-0  00000-0 0  9999
2 39509   0.0074 136.8610 0001054 206.2777  17.8834  1.00271127 25385
TURKSAT 4A              
1 39522U 14007A   21030.53772278  .00000149  00000-0  00000-0 0  9994
2 39522   0.0607 267.7962 0004866  22.9650  74.7602  1.00272067 25292
EXPRESS-AT1             
1 39612U 14010A   21030.33244072  .00000081  00000-0  00000-0 0  9997
2 39612   0.0303 240.2239 0000298 107.2164 318.0132  1.00273803 25358
EXPRESS-AT2             
1 39613U 14010B   21030.48546838 -.00000279  00000-0  00000-0 0  9999
2 39613   0.0632 258.0209 0000186 206.8849 339.6097  1.00271169 24823
AMAZONAS 4A             
1 39616U 14011A   21030.44281174 -.00000249  00000-0  00000-0 0  9995
2 39616   0.1160  83.7645 0003140 231.0537 260.4893  1.00271271 25007
ASTRA 5B                
1 39617U 14011B   21030.53562911  .00000157  00000-0  00000-0 0  9994
2 39617   0.0263  17.1548 0003492 293.1942  43.9196  1.00271924 24973
IRNSS-1B                
1 39635U 14017A   21029.75070681  .00000125  00000-0  00000-0 0  9995
2 39635  28.9418 273.4683 0018506 177.6444   3.4082  1.00272912 25093
LUCH 5V                 
1 39727U 14023A   21030.58799439 -.00000266  00000-0  00000-0 0  9993
2 39727   0.4846  34.9798 0002444 353.2708  48.1380  1.00276002 24675
KAZSAT-3                
1 39728U 14023B   21030.33244072  .00000064  00000-0  00000-0 0  9990
2 39728   0.0235 151.2104 0000618 229.4536 287.2777  1.00271220 22763
EUTELSAT 3B             
1 39773U 14030A   21030.31460259  .00000023  00000-0  00000-0 0  9998
2 39773   0.0622  30.2212 0003606 190.2380  25.6422  1.00270330 24372
USA 253                 
1 40099U 14043A   21015.30969799 -.00000212  00000-0  00000+0 0  9990
2 40099   0.2932 101.7404 0009178 131.8912 341.4286  0.99340578  8200
USA 254                 
1 40100U 14043B   21014.57063090 -.00000182  00000-0  00000+0 0  9996
2 40100   1.0755  94.8262 0000394   5.5921  15.3391  1.00135369  7911
ASIASAT 8 (AMOS-7)      
1 40107U 14046A   21030.32905677 -.00000030  00000-0  00000-0 0  9996
2 40107   0.0277 109.6304 0002111 207.4716 287.2332  1.00271565 82469
ASIASAT 6               
1 40141U 14052A   21030.57688284 -.00000360  00000-0  00000-0 0  9996
2 40141   0.0128  82.7640 0000699 252.8155 122.0279  1.00269828 23376
OPTUS 10                
1 40146U 14054A   21029.84265358 -.00000144  00000-0  00000-0 0  9994
2 40146   0.0412  96.7260 0002610 190.7007 301.2114  1.00270850 23322
MEASAT-3B               
1 40147U 14054B   21030.59354858 -.00000239  00000-0  00000-0 0  9998
2 40147   0.0375 326.2750 0002511   3.3840 105.5326  1.00273047 23219
LUCH (OLYMP)            
1 40258U 14058A   21030.32905677 -.00000023  00000-0  00000-0 0  9998
2 40258   0.0286 123.7520 0000452 256.8858 224.5588  1.00275800 21303
HIMAWARI-8              
1 40267U 14060A   21030.55735087 -.00000273  00000-0  00000-0 0  9999
2 40267   0.0595 219.4534 0001136  86.5562 165.2651  1.00273419 23076
IRNSS-1C                
1 40269U 14061A   21030.47412771 -.00000160  00000-0  00000-0 0  9990
2 40269   2.0963 157.9394 0017985  13.7182 211.9239  1.00273396 22993
INTELSAT 30 (IS-30)     
1 40271U 14062A   21029.57719438 -.00000146  00000-0  00000-0 0  9997
2 40271   0.0229  86.5629 0001962  30.1113 125.0981  1.00269376 22893
ARSAT 1                 
1 40272U 14062B   21030.46520110 -.00000256  00000-0  00000-0 0  9997
2 40272   0.0065 278.5318 0001633  25.6977 281.3416  1.00270485 22928
EXPRESS-AM6             
1 40277U 14064A   21030.33244072  .00000101  00000-0  00000-0 0  9998
2 40277   0.0587 260.7617 0000869 114.4289 287.2447  1.00273433 21889
GSAT-16                 
1 40332U 14078A   21030.54033985  .00000087  00000-0  00000-0 0  9990
2 40332   0.0816 274.6970 0002781 174.9398 289.9360  1.00273436 22415
DIRECTV 14              
1 40333U 14078B   21030.30488019 -.00000122  00000-0  00000-0 0  9998
2 40333   0.0217 126.4925 0000555 231.7351 142.0189  1.00271501 22366
YAMAL 401               
1 40345U 14082A   21030.59354858 -.00000226  00000-0  00000-0 0  9995
2 40345   0.0160 122.3106 0000914 298.7101  12.6105  1.00271975 22227
ASTRA 2G                
1 40364U 14089A   21030.53493122  .00000152  00000-0  00000-0 0  9992
2 40364   0.0241  26.7897 0003325 349.1455 334.7896  1.00272846 22272
